[
    {
        "Altitude(m)": 703239.5306516798,
        "Argument of Periapsis(deg)": 0.0022780242373254137,
        "Eccentricity": 0.0,
        "Inclination(deg)": 45.0,
        "Latitude(deg)": 1.581300056747175,
        "Longitude(deg)": 86.44309849328742,
        "Mean Anomaly(deg)": 2.3066433294961697,
        "RAAN(deg)": 184.99784961170835,
        "Satellite Name": "Constellation 1 814",
        "Satellite Number": 814,
        "Semi-Major Axis(m)": 7083131.272910544,
        "Time(s)": 38
    },
    {
        "Altitude(m)": 703234.6943376991,
        "Argument of Periapsis(deg)": 0.002337972243570819,
        "Eccentricity": 0.0,
        "Inclination(deg)": 45.0,
        "Latitude(deg)": 1.6245012818129558,
        "Longitude(deg)": 86.48188316592342,
        "Mean Anomaly(deg)": 2.3673444697460817,
        "RAAN(deg)": 184.99779302254277,
        "Satellite Name": "Constellation 1 814",
        "Satellite Number": 814,
        "Semi-Major Axis(m)": 7083131.272910544,
        "Time(s)": 39
    },
    {
        "Altitude(m)": 703229.8788540715,
        "Argument of Periapsis(deg)": 0.0023979202498162246,
        "Eccentricity": 0.0,
        "Inclination(deg)": 45.0,
        "Latitude(deg)": 1.667701637238768,
        "Longitude(deg)": 86.5206697235769,
        "Mean Anomaly(deg)": 2.428045609995968,
        "RAAN(deg)": 184.9977364333772,
        "Satellite Name": "Constellation 1 814",
        "Satellite Number": 814,
        "Semi-Major Axis(m)": 7083131.272910544,
        "Time(s)": 40
    },
    {
        "Altitude(m)": 703225.0842036316,
        "Argument of Periapsis(deg)": 0.00245786825606163,
        "Eccentricity": 0.0,
        "Inclination(deg)": 45.0,
        "Latitude(deg)": 1.7109010980102368,
        "Longitude(deg)": 86.55945821463905,
        "Mean Anomaly(deg)": 2.48874675024588,
        "RAAN(deg)": 184.99767984421166,
        "Satellite Name": "Constellation 1 814",
        "Satellite Number": 814,
        "Semi-Major Axis(m)": 7083131.272910544,
        "Time(s)": 41
    },
    {
        "Altitude(m)": 703220.3103891183,
        "Argument of Periapsis(deg)": 0.002517816262307036,
        "Eccentricity": 0.0,
        "Inclination(deg)": 45.0,
        "Latitude(deg)": 1.7540996391091408,
        "Longitude(deg)": 86.59824868750555,
        "Mean Anomaly(deg)": 2.5494478904957414,
        "RAAN(deg)": 184.99762325504605,
        "Satellite Name": "Constellation 1 814",
        "Satellite Number": 814,
        "Semi-Major Axis(m)": 7083131.272910544,
        "Time(s)": 42
    },
    {
        "Altitude(m)": 703215.5574131825,
        "Argument of Periapsis(deg)": 0.0025777642685524413,
        "Eccentricity": 0.0,
        "Inclination(deg)": 45.0,
        "Latitude(deg)": 1.7972972355133996,
        "Longitude(deg)": 86.63704119057687,
        "Mean Anomaly(deg)": 2.610149030745653,
        "RAAN(deg)": 184.9975666658805,
        "Satellite Name": "Constellation 1 814",
        "Satellite Number": 814,
        "Semi-Major Axis(m)": 7083131.272910544,
        "Time(s)": 43
    },
    {
        "Altitude(m)": 703210.8252783687,
        "Argument of Periapsis(deg)": 0.002637712274797847,
        "Eccentricity": 0.0,
        "Inclination(deg)": 45.0,
        "Latitude(deg)": 1.840493862196823,
        "Longitude(deg)": 86.67583560416107,
        "Mean Anomaly(deg)": 2.6708501709955397,
        "RAAN(deg)": 184.99751007671492,
        "Satellite Name": "Constellation 1 814",
        "Satellite Number": 814,
        "Semi-Major Axis(m)": 7083131.272910544,
        "Time(s)": 44
    },
    {
        "Altitude(m)": 703206.1139871399,
        "Argument of Periapsis(deg)": 0.0026976602810432526,
        "Eccentricity": 0.0,
        "Inclination(deg)": 45.0,
        "Latitude(deg)": 1.8836894941292965,
        "Longitude(deg)": 86.71463231286235,
        "Mean Anomaly(deg)": 2.7315513112454513,
        "RAAN(deg)": 184.99745348754936,
        "Satellite Name": "Constellation 1 814",
        "Satellite Number": 814,
        "Semi-Major Axis(m)": 7083131.272910544,
        "Time(s)": 45
    },
    {
        "Altitude(m)": 703201.4235418644,
        "Argument of Periapsis(deg)": 0.0027576082872886585,
        "Eccentricity": 0.0,
        "Inclination(deg)": 45.0,
        "Latitude(deg)": 1.926884106276363,
        "Longitude(deg)": 86.75343119699865,
        "Mean Anomaly(deg)": 2.7922524514953633,
        "RAAN(deg)": 184.9973968983838,
        "Satellite Name": "Constellation 1 814",
        "Satellite Number": 814,
        "Semi-Major Axis(m)": 7083131.272910544,
        "Time(s)": 46
    },
    {
        "Altitude(m)": 703196.7539448089,
        "Argument of Periapsis(deg)": 0.0028175562935340644,
        "Eccentricity": 0.0,
        "Inclination(deg)": 45.0,
        "Latitude(deg)": 1.9700776735993364,
        "Longitude(deg)": 86.79223230499005,
        "Mean Anomaly(deg)": 2.8529535917452495,
        "RAAN(deg)": 184.9973403092182,
        "Satellite Name": "Constellation 1 814",
        "Satellite Number": 814,
        "Semi-Major Axis(m)": 7083131.272910544,
        "Time(s)": 47
    },
    {
        "Altitude(m)": 703192.1051981569,
        "Argument of Periapsis(deg)": 0.00287750429977947,
        "Eccentricity": 0.0,
        "Inclination(deg)": 45.0,
        "Latitude(deg)": 2.013270171055161,
        "Longitude(deg)": 86.83103568526192,
        "Mean Anomaly(deg)": 2.913654731995162,
        "RAAN(deg)": 184.99728372005265,
        "Satellite Name": "Constellation 1 814",
        "Satellite Number": 814,
        "Semi-Major Axis(m)": 7083131.272910544,
        "Time(s)": 48
    },
    {
        "Altitude(m)": 703187.4773039821,
        "Argument of Periapsis(deg)": 0.002937452306024875,
        "Eccentricity": 0.0,
        "Inclination(deg)": 45.0,
        "Latitude(deg)": 2.056461573596323,
        "Longitude(deg)": 86.86984138624497,
        "Mean Anomaly(deg)": 2.9743558722450483,
        "RAAN(deg)": 184.9972271308871,
        "Satellite Name": "Constellation 1 814",
        "Satellite Number": 814,
        "Semi-Major Axis(m)": 7083131.272910544,
        "Time(s)": 49
    },
    {
        "Altitude(m)": 703182.8702642865,
        "Argument of Periapsis(deg)": 0.0029974003122702807,
        "Eccentricity": 0.0,
        "Inclination(deg)": 45.0,
        "Latitude(deg)": 2.0996518561707496,
        "Longitude(deg)": 86.9086494563751,
        "Mean Anomaly(deg)": 3.0350570124949603,
        "RAAN(deg)": 184.99717054172152,
        "Satellite Name": "Constellation 1 814",
        "Satellite Number": 814,
        "Semi-Major Axis(m)": 7083131.272910544,
        "Time(s)": 50
    },
    {
        "Altitude(m)": 703178.2840809588,
        "Argument of Periapsis(deg)": 0.0030573483185156866,
        "Eccentricity": 0.0,
        "Inclination(deg)": 45.0,
        "Latitude(deg)": 2.1428409937217316,
        "Longitude(deg)": 86.94745994409405,
        "Mean Anomaly(deg)": 3.095758152744847,
        "RAAN(deg)": 184.99711395255596,
        "Satellite Name": "Constellation 1 814",
        "Satellite Number": 814,
        "Semi-Major Axis(m)": 7083131.272910544,
        "Time(s)": 51
    },
    {
        "Altitude(m)": 703173.7187558085,
        "Argument of Periapsis(deg)": 0.003117296324761092,
        "Eccentricity": 0.0,
        "Inclination(deg)": 45.0,
        "Latitude(deg)": 2.186028961187764,
        "Longitude(deg)": 86.98627272975186,
        "Mean Anomaly(deg)": 3.156459292994759,
        "RAAN(deg)": 184.99705736339035,
        "Satellite Name": "Constellation 1 814",
        "Satellite Number": 814,
        "Semi-Major Axis(m)": 7083131.272910544,
        "Time(s)": 52
    },
    {
        "Altitude(m)": 703169.1742905424,
        "Argument of Periapsis(deg)": 0.0031772443310064975,
        "Eccentricity": 0.0,
        "Inclination(deg)": 45.0,
        "Latitude(deg)": 2.2292157335026843,
        "Longitude(deg)": 87.02508819799567,
        "Mean Anomaly(deg)": 3.217160433244645,
        "RAAN(deg)": 184.9970007742248,
        "Satellite Name": "Constellation 1 814",
        "Satellite Number": 814,
        "Semi-Major Axis(m)": 7083131.272910544,
        "Time(s)": 53
    },
    {
        "Altitude(m)": 703164.6506867793,
        "Argument of Periapsis(deg)": 0.0032371923372519038,
        "Eccentricity": 0.0,
        "Inclination(deg)": 45.0,
        "Latitude(deg)": 2.2724012855952416,
        "Longitude(deg)": 87.0639062291872,
        "Mean Anomaly(deg)": 3.277861573494557,
        "RAAN(deg)": 184.99694418505925,
        "Satellite Name": "Constellation 1 814",
        "Satellite Number": 814,
        "Semi-Major Axis(m)": 7083131.272910544,
        "Time(s)": 54
    },
    {
        "Altitude(m)": 703160.1479460406,
        "Argument of Periapsis(deg)": 0.0032971403434973088,
        "Eccentricity": 0.0,
        "Inclination(deg)": 45.0,
        "Latitude(deg)": 2.3155855923892394,
        "Longitude(deg)": 87.1027268717912,
        "Mean Anomaly(deg)": 3.338562713744469,
        "RAAN(deg)": 184.99688759589367,
        "Satellite Name": "Constellation 1 814",
        "Satellite Number": 814,
        "Semi-Major Axis(m)": 7083131.272910544,
        "Time(s)": 55
    },
    {
        "Altitude(m)": 703155.6660697545,
        "Argument of Periapsis(deg)": 0.0033570883497427146,
        "Eccentricity": 0.0,
        "Inclination(deg)": 45.0,
        "Latitude(deg)": 2.3587686288033733,
        "Longitude(deg)": 87.1415501742785,
        "Mean Anomaly(deg)": 3.3992638539943556,
        "RAAN(deg)": 184.99683100672812,
        "Satellite Name": "Constellation 1 814",
        "Satellite Number": 814,
        "Semi-Major Axis(m)": 7083131.272910544,
        "Time(s)": 56
    }
]